[{"OBJECT_NAME":"KUIPER-00042","OBJECT_ID":"2025-134D","EPOCH":"2026-03-09T21:22:19.187904","MEAN_MOTION":14.79992104,"ECCENTRICITY":0.00070968,"INCLINATION":51.8988,"RA_OF_ASC_NODE":240.7018,"ARG_OF_PERICENTER":281.3124,"MEAN_ANOMALY":78.7041,"EPHEMERIS_TYPE":0,"CLASSIFICATION_TYPE":"U","NORAD_CAT_ID":64503,"ELEMENT_SET_NO":999,"REV_AT_EPOCH":3998,"BSTAR":0.00061477157,"MEAN_MOTION_DOT":4.475e-5,"MEAN_MOTION_DDOT":0},{"OBJECT_NAME":"CZ-6A DEB","OBJECT_ID":"2022-151ZE","EPOCH":"2026-03-09T17:05:16.621152","MEAN_MOTION":14.73121949,"ECCENTRICITY":0.00720223,"INCLINATION":98.632,"RA_OF_ASC_NODE":132.8589,"ARG_OF_PERICENTER":222.3831,"MEAN_ANOMALY":137.1799,"EPHEMERIS_TYPE":0,"CLASSIFICATION_TYPE":"U","NORAD_CAT_ID":55556,"ELEMENT_SET_NO":999,"REV_AT_EPOCH":17578,"BSTAR":0.0025869864,"MEAN_MOTION_DOT":0.00017342,"MEAN_MOTION_DDOT":0}]
